[{"OBJECT_NAME":"ONEWEB-0552","OBJECT_ID":"2023-043J","EPOCH":"2026-03-06T12:04:52.045824","MEAN_MOTION":13.21825347,"ECCENTRICITY":0.00016237,"INCLINATION":87.9162,"RA_OF_ASC_NODE":264.4641,"ARG_OF_PERICENTER":99.4731,"MEAN_ANOMALY":260.6587,"EPHEMERIS_TYPE":0,"CLASSIFICATION_TYPE":"U","NORAD_CAT_ID":56054,"ELEMENT_SET_NO":999,"REV_AT_EPOCH":14466,"BSTAR":-3.4562369e-5,"MEAN_MOTION_DOT":-1.0e-8,"MEAN_MOTION_DDOT":0},{"OBJECT_NAME":"ONEWEB-0553","OBJECT_ID":"2023-043K","EPOCH":"2026-03-05T23:28:23.986560","MEAN_MOTION":13.16593455,"ECCENTRICITY":0.00015248,"INCLINATION":87.9006,"RA_OF_ASC_NODE":249.305,"ARG_OF_PERICENTER":81.251,"MEAN_ANOMALY":278.8794,"EPHEMERIS_TYPE":0,"CLASSIFICATION_TYPE":"U","NORAD_CAT_ID":56055,"ELEMENT_SET_NO":999,"REV_AT_EPOCH":14539,"BSTAR":-0.00010033335,"MEAN_MOTION_DOT":-2.6e-7,"MEAN_MOTION_DDOT":0},{"OBJECT_NAME":"ONEWEB-0554","OBJECT_ID":"2023-043L","EPOCH":"2026-03-05T23:10:09.487776","MEAN_MOTION":13.16593518,"ECCENTRICITY":0.0001285,"INCLINATION":87.9002,"RA_OF_ASC_NODE":249.318,"ARG_OF_PERICENTER":94.3051,"MEAN_ANOMALY":265.8227,"EPHEMERIS_TYPE":0,"CLASSIFICATION_TYPE":"U","NORAD_CAT_ID":56056,"ELEMENT_SET_NO":999,"REV_AT_EPOCH":14537,"BSTAR":0.0001050303,"MEAN_MOTION_DOT":5.3e-7,"MEAN_MOTION_DDOT":0},{"OBJECT_NAME":"ONEWEB-0555","OBJECT_ID":"2023-043M","EPOCH":"2026-03-06T11:01:29.782272","MEAN_MOTION":13.16593816,"ECCENTRICITY":0.00016472,"INCLINATION":87.9003,"RA_OF_ASC_NODE":249.2044,"ARG_OF_PERICENTER":75.537,"MEAN_ANOMALY":284.5944,"EPHEMERIS_TYPE":0,"CLASSIFICATION_TYPE":"U","NORAD_CAT_ID":56057,"ELEMENT_SET_NO":999,"REV_AT_EPOCH":14544,"BSTAR":-6.4132204e-5,"MEAN_MOTION_DOT":-1.2e-7,"MEAN_MOTION_DDOT":0},{"OBJECT_NAME":"ONEWEB-0557","OBJECT_ID":"2023-043N","EPOCH":"2026-03-06T11:22:00.552864","MEAN_MOTION":13.16593148,"ECCENTRICITY":7.939e-5,"INCLINATION":87.9003,"RA_OF_ASC_NODE":249.2128,"ARG_OF_PERICENTER":40.8128,"MEAN_ANOMALY":319.3063,"EPHEMERIS_TYPE":0,"CLASSIFICATION_TYPE":"U","NORAD_CAT_ID":56058,"ELEMENT_SET_NO":999,"REV_AT_EPOCH":14544,"BSTAR":-6.310706e-6,"MEAN_MOTION_DOT":1.0e-7,"MEAN_MOTION_DDOT":0},{"OBJECT_NAME":"ONEWEB-0558","OBJECT_ID":"2023-043P","EPOCH":"2026-03-06T11:55:22.878048","MEAN_MOTION":13.21825974,"ECCENTRICITY":0.00021166,"INCLINATION":87.9165,"RA_OF_ASC_NODE":264.4581,"ARG_OF_PERICENTER":97.5454,"MEAN_ANOMALY":262.5921,"EPHEMERIS_TYPE":0,"CLASSIFICATION_TYPE":"U","NORAD_CAT_ID":56059,"ELEMENT_SET_NO":999,"REV_AT_EPOCH":14467,"BSTAR":0.00016758388,"MEAN_MOTION_DOT":8.2e-7,"MEAN_MOTION_DDOT":0},{"OBJECT_NAME":"ONEWEB-0559","OBJECT_ID":"2023-043Q","EPOCH":"2026-03-06T13:27:46.319328","MEAN_MOTION":13.21824938,"ECCENTRICITY":0.00017476,"INCLINATION":87.9163,"RA_OF_ASC_NODE":264.4389,"ARG_OF_PERICENTER":101.4297,"MEAN_ANOMALY":258.7033,"EPHEMERIS_TYPE":0,"CLASSIFICATION_TYPE":"U","NORAD_CAT_ID":56060,"ELEMENT_SET_NO":999,"REV_AT_EPOCH":14469,"BSTAR":-0.00063770204,"MEAN_MOTION_DOT":-2.5e-6,"MEAN_MOTION_DDOT":0},{"OBJECT_NAME":"ONEWEB-0566","OBJECT_ID":"2023-043R","EPOCH":"2026-03-06T11:29:18.903264","MEAN_MOTION":13.21826698,"ECCENTRICITY":0.00018566,"INCLINATION":87.9165,"RA_OF_ASC_NODE":264.4545,"ARG_OF_PERICENTER":98.9753,"MEAN_ANOMALY":261.1591,"EPHEMERIS_TYPE":0,"CLASSIFICATION_TYPE":"U","NORAD_CAT_ID":56061,"ELEMENT_SET_NO":999,"REV_AT_EPOCH":14466,"BSTAR":9.047241e-6,"MEAN_MOTION_DOT":1.7e-7,"MEAN_MOTION_DDOT":0},{"OBJECT_NAME":"ONEWEB-0568","OBJECT_ID":"2023-043S","EPOCH":"2026-03-06T11:47:06.374400","MEAN_MOTION":13.16595944,"ECCENTRICITY":0.00015861,"INCLINATION":87.9003,"RA_OF_ASC_NODE":249.1991,"ARG_OF_PERICENTER":85.4768,"MEAN_ANOMALY":274.6544,"EPHEMERIS_TYPE":0,"CLASSIFICATION_TYPE":"U","NORAD_CAT_ID":56062,"ELEMENT_SET_NO":999,"REV_AT_EPOCH":14546,"BSTAR":0.00052630679,"MEAN_MOTION_DOT":2.14e-6,"MEAN_MOTION_DDOT":0},{"OBJECT_NAME":"ONEWEB-0574","OBJECT_ID":"2023-043T","EPOCH":"2026-03-06T11:19:50.428416","MEAN_MOTION":13.21825119,"ECCENTRICITY":0.00014055,"INCLINATION":87.9175,"RA_OF_ASC_NODE":264.4484,"ARG_OF_PERICENTER":90.5227,"MEAN_ANOMALY":269.6068,"EPHEMERIS_TYPE":0,"CLASSIFICATION_TYPE":"U","NORAD_CAT_ID":56063,"ELEMENT_SET_NO":999,"REV_AT_EPOCH":14470,"BSTAR":2.5851651e-5,"MEAN_MOTION_DOT":2.4e-7,"MEAN_MOTION_DDOT":0},{"OBJECT_NAME":"ONEWEB-0575","OBJECT_ID":"2023-043U","EPOCH":"2026-03-06T11:37:58.176768","MEAN_MOTION":13.16593152,"ECCENTRICITY":0.00012063,"INCLINATION":87.9,"RA_OF_ASC_NODE":249.1983,"ARG_OF_PERICENTER":83.1518,"MEAN_ANOMALY":276.9751,"EPHEMERIS_TYPE":0,"CLASSIFICATION_TYPE":"U","NORAD_CAT_ID":56064,"ELEMENT_SET_NO":999,"REV_AT_EPOCH":14545,"BSTAR":7.2694118e-5,"MEAN_MOTION_DOT":4.1e-7,"MEAN_MOTION_DDOT":0},{"OBJECT_NAME":"ONEWEB-0576","OBJECT_ID":"2023-043V","EPOCH":"2026-03-06T11:10:36.847200","MEAN_MOTION":13.16593353,"ECCENTRICITY":0.00014112,"INCLINATION":87.9006,"RA_OF_ASC_NODE":249.2059,"ARG_OF_PERICENTER":90.8033,"MEAN_ANOMALY":269.3259,"EPHEMERIS_TYPE":0,"CLASSIFICATION_TYPE":"U","NORAD_CAT_ID":56065,"ELEMENT_SET_NO":999,"REV_AT_EPOCH":14544,"BSTAR":-0.00010572369,"MEAN_MOTION_DOT":-2.8e-7,"MEAN_MOTION_DDOT":0},{"OBJECT_NAME":"ONEWEB-0577","OBJECT_ID":"2023-043W","EPOCH":"2026-03-06T11:19:43.963104","MEAN_MOTION":13.16592999,"ECCENTRICITY":7.901e-5,"INCLINATION":87.9004,"RA_OF_ASC_NODE":249.2037,"ARG_OF_PERICENTER":86.0846,"MEAN_ANOMALY":274.0375,"EPHEMERIS_TYPE":0,"CLASSIFICATION_TYPE":"U","NORAD_CAT_ID":56066,"ELEMENT_SET_NO":999,"REV_AT_EPOCH":14547,"BSTAR":-9.5590598e-5,"MEAN_MOTION_DOT":-2.4e-7,"MEAN_MOTION_DDOT":0},{"OBJECT_NAME":"ONEWEB-0578","OBJECT_ID":"2023-043X","EPOCH":"2026-03-06T12:49:51.533472","MEAN_MOTION":13.21827155,"ECCENTRICITY":0.00016533,"INCLINATION":87.9165,"RA_OF_ASC_NODE":264.4427,"ARG_OF_PERICENTER":83.7042,"MEAN_ANOMALY":276.428,"EPHEMERIS_TYPE":0,"CLASSIFICATION_TYPE":"U","NORAD_CAT_ID":56067,"ELEMENT_SET_NO":999,"REV_AT_EPOCH":14467,"BSTAR":-1.519907e-6,"MEAN_MOTION_DOT":1.2e-7,"MEAN_MOTION_DDOT":0},{"OBJECT_NAME":"ONEWEB-0579","OBJECT_ID":"2023-043Y","EPOCH":"2026-03-06T12:35:39.665760","MEAN_MOTION":13.21826078,"ECCENTRICITY":0.000162,"INCLINATION":87.9174,"RA_OF_ASC_NODE":264.4348,"ARG_OF_PERICENTER":102.0302,"MEAN_ANOMALY":258.1014,"EPHEMERIS_TYPE":0,"CLASSIFICATION_TYPE":"U","NORAD_CAT_ID":56068,"ELEMENT_SET_NO":999,"REV_AT_EPOCH":14468,"BSTAR":-1.9521571e-5,"MEAN_MOTION_DOT":5.0e-8,"MEAN_MOTION_DDOT":0},{"OBJECT_NAME":"ONEWEB-0581","OBJECT_ID":"2023-043Z","EPOCH":"2026-03-06T11:28:51.559392","MEAN_MOTION":13.16593412,"ECCENTRICITY":9.928e-5,"INCLINATION":87.9002,"RA_OF_ASC_NODE":249.2137,"ARG_OF_PERICENTER":92.5284,"MEAN_ANOMALY":267.5961,"EPHEMERIS_TYPE":0,"CLASSIFICATION_TYPE":"U","NORAD_CAT_ID":56069,"ELEMENT_SET_NO":999,"REV_AT_EPOCH":14544,"BSTAR":-0.00011030165,"MEAN_MOTION_DOT":-2.9e-7,"MEAN_MOTION_DDOT":0},{"OBJECT_NAME":"ONEWEB-0609","OBJECT_ID":"2023-043AA","EPOCH":"2026-03-06T13:58:41.235744","MEAN_MOTION":13.15547461,"ECCENTRICITY":0.00016748,"INCLINATION":87.8938,"RA_OF_ASC_NODE":279.7047,"ARG_OF_PERICENTER":88.5062,"MEAN_ANOMALY":271.6261,"EPHEMERIS_TYPE":0,"CLASSIFICATION_TYPE":"U","NORAD_CAT_ID":56070,"ELEMENT_SET_NO":999,"REV_AT_EPOCH":14294,"BSTAR":0.00038474934,"MEAN_MOTION_DOT":1.58e-6,"MEAN_MOTION_DDOT":0}]
