ONEWEB-0552             
1 56054U 23043J   26065.50338016 -.00000001  00000+0 -34562-4 0  9993
2 56054  87.9162 264.4641 0001623  99.4731 260.6587 13.21825347144668
ONEWEB-0553             
1 56055U 23043K   26064.97805540 -.00000026  00000+0 -10033-3 0  9998
2 56055  87.9006 249.3050 0001524  81.2510 278.8794 13.16593455145394
ONEWEB-0554             
1 56056U 23043L   26064.96538759  .00000053  00000+0  10503-3 0  9993
2 56056  87.9002 249.3180 0001285  94.3051 265.8227 13.16593518145379
ONEWEB-0555             
1 56057U 23043M   26065.45937248 -.00000012  00000+0 -64132-4 0  9990
2 56057  87.9003 249.2044 0001647  75.5370 284.5944 13.16593816145449
ONEWEB-0557             
1 56058U 23043N   26065.47361751  .00000010  00000+0 -63107-5 0  9992
2 56058  87.9003 249.2128 0000793  40.8128 319.3063 13.16593148145447
ONEWEB-0558             
1 56059U 23043P   26065.49679257  .00000082  00000+0  16758-3 0  9994
2 56059  87.9165 264.4581 0002116  97.5454 262.5921 13.21825974144678
ONEWEB-0559             
1 56060U 23043Q   26065.56095277 -.00000250  00000+0 -63770-3 0  9993
2 56060  87.9163 264.4389 0001747 101.4297 258.7033 13.21824938144695
ONEWEB-0566             
1 56061U 23043R   26065.47869101  .00000017  00000+0  90472-5 0  9999
2 56061  87.9165 264.4545 0001856  98.9753 261.1591 13.21826698144669
ONEWEB-0568             
1 56062U 23043S   26065.49104600  .00000214  00000+0  52631-3 0  9990
2 56062  87.9003 249.1991 0001586  85.4768 274.6544 13.16595944145460
ONEWEB-0574             
1 56063U 23043T   26065.47211144  .00000024  00000+0  25852-4 0  9996
2 56063  87.9175 264.4484 0001405  90.5227 269.6068 13.21825119144702
ONEWEB-0575             
1 56064U 23043U   26065.48470112  .00000041  00000+0  72694-4 0  9995
2 56064  87.9000 249.1983 0001206  83.1518 276.9751 13.16593152145450
ONEWEB-0576             
1 56065U 23043V   26065.46570425 -.00000028  00000+0 -10572-3 0  9995
2 56065  87.9006 249.2059 0001411  90.8033 269.3259 13.16593353145448
ONEWEB-0577             
1 56066U 23043W   26065.47203661 -.00000024  00000+0 -95591-4 0  9993
2 56066  87.9004 249.2037 0000790  86.0846 274.0375 13.16592999145471
ONEWEB-0578             
1 56067U 23043X   26065.53462423  .00000012  00000+0 -15199-5 0  9997
2 56067  87.9165 264.4427 0001653  83.7042 276.4280 13.21827155144676
ONEWEB-0579             
1 56068U 23043Y   26065.52476465  .00000005  00000+0 -19522-4 0  9993
2 56068  87.9174 264.4348 0001620 102.0302 258.1014 13.21826078144683
ONEWEB-0581             
1 56069U 23043Z   26065.47837453 -.00000029  00000+0 -11030-3 0  9998
2 56069  87.9002 249.2137 0000992  92.5284 267.5961 13.16593412145441
ONEWEB-0609             
1 56070U 23043AA  26065.58242171  .00000158  00000+0  38475-3 0  9992
2 56070  87.8938 279.7047 0001674  88.5062 271.6261 13.15547461142948
